{"type": "FeatureCollection", "features": [ {"type": "Feature", "properties": {"norad_id": 31633, "name": "FENGYUN 1C DEB", "group": "fengyun-1c-debris", "lat": -53.628859680641334, "lon": 163.99971264062395, "alt_km": 845.919776827317, "timestamp": "2025-12-07T14:37:05.488021+00:00", "meta": {"OBJECT_NAME": "FENGYUN 1C DEB", "OBJECT_ID": "1999-025CAP", "EPOCH": "2025-11-15T20:43:47.485920", "MEAN_MOTION": 14.06334417, "ECCENTRICITY": 0.00656916, "INCLINATION": 98.7152, "RA_OF_ASC_NODE": 335.0833, "ARG_OF_PERICENTER": 248.7649, "MEAN_ANOMALY": 110.6494, "EPHEMERIS_TYPE": 0, "CLASSIFICATION_TYPE": "U", "NORAD_CAT_ID": 31633, "ELEMENT_SET_NO": 999, "REV_AT_EPOCH": 56706, "BSTAR": 0.0011592605, "MEAN_MOTION_DOT": 1.907e-05, "MEAN_MOTION_DDOT": 0}, "tle": {"line1": "1 31633U 99025CAP 25319.86374405  .00001907  00000+0  11593-2 0  9995", "line2": "2 31633  98.7152 335.0833 0065691 248.7649 110.6494 14.06334417567064"}}, "geometry": {"type": "Point", "coordinates": [163.99971264062395, -53.628859680641334]}}, {"type": "Feature", "properties": {"norad_id": 31634, "name": "FENGYUN 1C DEB", "group": "fengyun-1c-debris", "lat": -16.266578626103314, "lon": 30.789045098239086, "alt_km": 983.2652445693238, "timestamp": "2025-12-07T14:37:05.488032+00:00", "meta": {"OBJECT_NAME": "FENGYUN 1C DEB", "OBJECT_ID": "1999-025CAQ", "EPOCH": "2025-12-02T09:00:27.072576", "MEAN_MOTION": 13.94657889, "ECCENTRICITY": 0.00916924, "INCLINATION": 99.3683, "RA_OF_ASC_NODE": 22.7184, "ARG_OF_PERICENTER": 185.6903, "MEAN_ANOMALY": 174.3223, "EPHEMERIS_TYPE": 0, "CLASSIFICATION_TYPE": "U", "NORAD_CAT_ID": 31634, "ELEMENT_SET_NO": 999, "REV_AT_EPOCH": 56379, "BSTAR": 0.00031553586, "MEAN_MOTION_DOT": 3.91e-06, "MEAN_MOTION_DDOT": 0}, "tle": {"line1": "1 31634U 99025CAQ 25336.37531334  .00000391  00000+0  31554-3 0  9993", "line2": "2 31634  99.3683  22.7184 0091692 185.6903 174.3223 13.94657889563792"}}, "geometry": {"type": "Point", "coordinates": [30.789045098239086, -16.266578626103314]}}, {"type": "Feature", "properties": {"norad_id": 31639, "name": "FENGYUN 1C DEB", "group": "fengyun-1c-debris", "lat": 30.617678227660182, "lon": -77.33245829553596, "alt_km": 1015.465412219909, "timestamp": "2025-12-07T14:37:05.488042+00:00", "meta": {"OBJECT_NAME": "FENGYUN 1C DEB", "OBJECT_ID": "1999-025CAV", "EPOCH": "2025-12-06T07:59:48.055776", "MEAN_MOTION": 13.85160281, "ECCENTRICITY": 0.01613877, "INCLINATION": 98.7422, "RA_OF_ASC_NODE": 286.7024, "ARG_OF_PERICENTER": 162.5535, "MEAN_ANOMALY": 351.1367, "EPHEMERIS_TYPE": 0, "CLASSIFICATION_TYPE": "U", "NORAD_CAT_ID": 31639, "ELEMENT_SET_NO": 999, "REV_AT_EPOCH": 93599, "BSTAR": 0.0001949865, "MEAN_MOTION_DOT": 2.05e-06, "MEAN_MOTION_DDOT": 0}, "tle": {"line1": "1 31639U 99025CAV 25340.33319509  .00000205  00000+0  19499-3 0  9995", "line2": "2 31639  98.7422 286.7024 0161387 162.5535 351.1367 13.85160281935994"}}, "geometry": {"type": "Point", "coordinates": [-77.33245829553596, 30.617678227660182]}}, {"type": "Feature", "properties": {"norad_id": 31642, "name": "FENGYUN 1C DEB", "group": "fengyun-1c-debris", "lat": 44.892084799673874, "lon": 55.32260274555356, "alt_km": 835.0078777282397, "timestamp": "2025-12-07T14:37:05.488052+00:00", "meta": {"OBJECT_NAME": "FENGYUN 1C DEB", "OBJECT_ID": "1999-025CAY", "EPOCH": "2025-12-06T11:35:58.674336", "MEAN_MOTION": 14.33380706, "ECCENTRICITY": 0.0118984, "INCLINATION": 98.5049, "RA_OF_ASC_NODE": 62.7896, "ARG_OF_PERICENTER": 275.1315, "MEAN_ANOMALY": 83.6299, "EPHEMERIS_TYPE": 0, "CLASSIFICATION_TYPE": "U", "NORAD_CAT_ID": 31642, "ELEMENT_SET_NO": 999, "REV_AT_EPOCH": 96929, "BSTAR": 0.00067902558, "MEAN_MOTION_DOT": 1.98e-05, "MEAN_MOTION_DDOT": 0}, "tle": {"line1": "1 31642U 99025CAY 25340.48331799  .00001980  00000+0  67903-3 0  9994", "line2": "2 31642  98.5049  62.7896 0118984 275.1315  83.6299 14.33380706969293"}}, "geometry": {"type": "Point", "coordinates": [55.32260274555356, 44.892084799673874]}}, {"type": "Feature", "properties": {"norad_id": 31644, "name": "FENGYUN 1C DEB", "group": "fengyun-1c-debris", "lat": 66.65023952334951, "lon": -149.55064622979526, "alt_km": 731.7736157418567, "timestamp": "2025-12-07T14:37:05.488062+00:00", "meta": {"OBJECT_NAME": "FENGYUN 1C DEB", "OBJECT_ID": "1999-025CBA", "EPOCH": "2025-12-06T11:16:52.465152", "MEAN_MOTION": 14.67796103, "ECCENTRICITY": 0.01540962, "INCLINATION": 98.6709, "RA_OF_ASC_NODE": 229.9446, "ARG_OF_PERICENTER": 202.8242, "MEAN_ANOMALY": 331.5306, "EPHEMERIS_TYPE": 0, "CLASSIFICATION_TYPE": "U", "NORAD_CAT_ID": 31644, "ELEMENT_SET_NO": 999, "REV_AT_EPOCH": 70952, "BSTAR": 0.0017287223, "MEAN_MOTION_DOT": 0.00011757, "MEAN_MOTION_DDOT": 0}, "tle": {"line1": "1 31644U 99025CBA 25340.47005168  .00011757  00000+0  17287-2 0  9995", "line2": "2 31644  98.6709 229.9446 0154096 202.8242 331.5306 14.67796103709528"}}, "geometry": {"type": "Point", "coordinates": [-149.55064622979526, 66.65023952334951]}}, {"type": "Feature", "properties": {"norad_id": 31646, "name": "FENGYUN 1C DEB", "group": "fengyun-1c-debris", "lat": 25.05164543011892, "lon": -171.1412781825492, "alt_km": 837.9504906976945, "timestamp": "2025-12-07T14:37:05.488072+00:00", "meta": {"OBJECT_NAME": "FENGYUN 1C DEB", "OBJECT_ID": "1999-025CBC", "EPOCH": "2025-12-06T20:54:19.845792", "MEAN_MOTION": 14.14117745, "ECCENTRICITY": 0.00327131, "INCLINATION": 98.6907, "RA_OF_ASC_NODE": 4.0414, "ARG_OF_PERICENTER": 230.7291, "MEAN_ANOMALY": 129.0979, "EPHEMERIS_TYPE": 0, "CLASSIFICATION_TYPE": "U", "NORAD_CAT_ID": 31646, "ELEMENT_SET_NO": 999, "REV_AT_EPOCH": 63108, "BSTAR": 0.00078502967, "MEAN_MOTION_DOT": 1.459e-05, "MEAN_MOTION_DDOT": 0}, "tle": {"line1": "1 31646U 99025CBC 25340.87106303  .00001459  00000+0  78503-3 0  9991", "line2": "2 31646  98.6907   4.0414 0032713 230.7291 129.0979 14.14117745631084"}}, "geometry": {"type": "Point", "coordinates": [-171.1412781825492, 25.05164543011892]}}, {"type": "Feature", "properties": {"norad_id": 31655, "name": "FENGYUN 1C DEB", "group": "fengyun-1c-debris", "lat": 3.1278547753819472, "lon": 108.23778040438346, "alt_km": 830.1343695280902, "timestamp": "2025-12-07T14:37:05.488083+00:00", "meta": {"OBJECT_NAME": "FENGYUN 1C DEB", "OBJECT_ID": "1999-025CBM", "EPOCH": "2025-12-05T15:06:01.661760", "MEAN_MOTION": 13.6380404, "ECCENTRICITY": 0.02884805, "INCLINATION": 99.2858, "RA_OF_ASC_NODE": 285.8328, "ARG_OF_PERICENTER": 156.518, "MEAN_ANOMALY": 23.125, "EPHEMERIS_TYPE": 0, "CLASSIFICATION_TYPE": "U", "NORAD_CAT_ID": 31655, "ELEMENT_SET_NO": 999, "REV_AT_EPOCH": 59622, "BSTAR": 0.0043059807, "MEAN_MOTION_DOT": 4.489e-05, "MEAN_MOTION_DDOT": 0}, "tle": {"line1": "1 31655U 99025CBM 25339.62918590  .00004489  00000+0  43060-2 0  9996", "line2": "2 31655  99.2858 285.8328 0288480 156.5180  23.1250 13.63804040596221"}}, "geometry": {"type": "Point", "coordinates": [108.23778040438346, 3.1278547753819472]}}, {"type": "Feature", "properties": {"norad_id": 31656, "name": "FENGYUN 1C DEB", "group": "fengyun-1c-debris", "lat": -27.751974858220077, "lon": 145.0714555785276, "alt_km": 754.3359334880424, "timestamp": "2025-12-07T14:37:05.488093+00:00", "meta": {"OBJECT_NAME": "FENGYUN 1C DEB", "OBJECT_ID": "1999-025CBN", "EPOCH": "2025-12-06T22:59:00.633408", "MEAN_MOTION": 14.4687185, "ECCENTRICITY": 0.00228412, "INCLINATION": 99.1953, "RA_OF_ASC_NODE": 329.2541, "ARG_OF_PERICENTER": 68.1642, "MEAN_ANOMALY": 348.4143, "EPHEMERIS_TYPE": 0, "CLASSIFICATION_TYPE": "U", "NORAD_CAT_ID": 31656, "ELEMENT_SET_NO": 999, "REV_AT_EPOCH": 96372, "BSTAR": 0.0035421363, "MEAN_MOTION_DOT": 0.00012863, "MEAN_MOTION_DDOT": 0}, "tle": {"line1": "1 31656U 99025CBN 25340.95764622  .00012863  00000+0  35421-2 0  9997", "line2": "2 31656  99.1953 329.2541 0022841  68.1642 348.4143 14.46871850963727"}}, "geometry": {"type": "Point", "coordinates": [145.0714555785276, -27.751974858220077]}}, {"type": "Feature", "properties": {"norad_id": 31657, "name": "FENGYUN 1C DEB", "group": "fengyun-1c-debris", "lat": -73.10422995163489, "lon": 18.834215278536075, "alt_km": 1015.146691332804, "timestamp": "2025-12-07T14:37:05.488104+00:00", "meta": {"OBJECT_NAME": "FENGYUN 1C DEB", "OBJECT_ID": "1999-025CBP", "EPOCH": "2025-12-05T23:34:36.376608", "MEAN_MOTION": 13.96939719, "ECCENTRICITY": 0.01456048, "INCLINATION": 102.2173, "RA_OF_ASC_NODE": 242.1836, "ARG_OF_PERICENTER": 70.2331, "MEAN_ANOMALY": 291.4456, "EPHEMERIS_TYPE": 0, "CLASSIFICATION_TYPE": "U", "NORAD_CAT_ID": 31657, "ELEMENT_SET_NO": 999, "REV_AT_EPOCH": 62770, "BSTAR": 0.0049638047, "MEAN_MOTION_DOT": 7.504e-05, "MEAN_MOTION_DDOT": 0}, "tle": {"line1": "1 31657U 99025CBP 25339.98236547  .00007504  00000+0  49638-2 0  9990", "line2": "2 31657 102.2173 242.1836 0145604  70.2331 291.4456 13.96939719627702"}}, "geometry": {"type": "Point", "coordinates": [18.834215278536075, -73.10422995163489]}}, {"type": "Feature", "properties": {"norad_id": 31658, "name": "FENGYUN 1C DEB", "group": "fengyun-1c-debris", "lat": 16.565302626386593, "lon": 13.711134206012522, "alt_km": 1054.7626158913126, "timestamp": "2025-12-07T14:37:05.488114+00:00", "meta": {"OBJECT_NAME": "FENGYUN 1C DEB", "OBJECT_ID": "1999-025CBQ", "EPOCH": "2025-11-30T13:35:01.131648", "MEAN_MOTION": 13.98632883, "ECCENTRICITY": 0.0215722, "INCLINATION": 98.1534, "RA_OF_ASC_NODE": 184.9954, "ARG_OF_PERICENTER": 356.7033, "MEAN_ANOMALY": 3.2699, "EPHEMERIS_TYPE": 0, "CLASSIFICATION_TYPE": "U", "NORAD_CAT_ID": 31658, "ELEMENT_SET_NO": 999, "REV_AT_EPOCH": 69646, "BSTAR": 0.0024889, "MEAN_MOTION_DOT": 4.324e-05, "MEAN_MOTION_DDOT": 0}, "tle": {"line1": "1 31658U 99025CBQ 25334.56598532  .00004324  00000+0  24889-2 0  9993", "line2": "2 31658  98.1534 184.9954 0215722 356.7033   3.2699 13.98632883696462"}}, "geometry": {"type": "Point", "coordinates": [13.711134206012522, 16.565302626386593]}}]}